{
  "type": "FeatureCollection",
  "features": [
    {
      "type": "Feature",
      "properties": {
        "norad_id": 66390,
        "name": "STARLINK-35665",
        "group": "last-30-days",
        "lat": -46.33007802202202,
        "lon": 154.63157777252667,
        "alt_km": 423.9818007937856,
        "timestamp": "2025-12-08T17:43:03.630634+00:00",
        "meta_object_name": "STARLINK-35665",
        "meta_object_id": "2025-257L",
        "meta_epoch": "2025-12-08T04:16:51.292416",
        "meta_mean_motion": 15.49311132,
        "meta_eccentricity": 0.0001407,
        "meta_inclination": 53.1603,
        "meta_ra_of_asc_node": 285.556,
        "meta_arg_of_pericenter": 85.3677,
        "meta_mean_anomaly": 274.7492,
        "meta_ephemeris_type": 0,
        "meta_classification_type": "U",
        "meta_norad_cat_id": 66390,
        "meta_element_set_no": 999,
        "meta_rev_at_epoch": 577,
        "meta_bstar": 0.0014290723,
        "meta_mean_motion_dot": 0.00079854,
        "meta_mean_motion_ddot": 0,
        "tle_line1": "1 66390U 25257L   25342.17837144  .00079854  00000+0  14291-2 0  9997",
        "tle_line2": "2 66390  53.1603 285.5560 0001407  85.3677 274.7492 15.49311132  5777"
      },
      "geometry": {
        "type": "Point",
        "coordinates": [
          154.63157777252667,
          -46.33007802202202
        ]
      }
    },
    {
      "type": "Feature",
      "properties": {
        "norad_id": 66391,
        "name": "STARLINK-35656",
        "group": "last-30-days",
        "lat": 43.39028898957568,
        "lon": -31.630263451537758,
        "alt_km": 440.8067121668073,
        "timestamp": "2025-12-08T17:43:03.630645+00:00",
        "meta_object_name": "STARLINK-35656",
        "meta_object_id": "2025-257M",
        "meta_epoch": "2025-12-08T06:33:23.584896",
        "meta_mean_motion": 15.39625286,
        "meta_eccentricity": 9.076e-05,
        "meta_inclination": 53.1594,
        "meta_ra_of_asc_node": 285.4288,
        "meta_arg_of_pericenter": 100.2152,
        "meta_mean_anomaly": 259.8955,
        "meta_ephemeris_type": 0,
        "meta_classification_type": "U",
        "meta_norad_cat_id": 66391,
        "meta_element_set_no": 999,
        "meta_rev_at_epoch": 578,
        "meta_bstar": 0.0018211814,
        "meta_mean_motion_dot": 0.00073161,
        "meta_mean_motion_ddot": 0,
        "tle_line1": "1 66391U 25257M   25342.27318964  .00073161  00000+0  18212-2 0  9995",
        "tle_line2": "2 66391  53.1594 285.4288 0000907 100.2152 259.8955 15.39625286  5788"
      },
      "geometry": {
        "type": "Point",
        "coordinates": [
          -31.630263451537758,
          43.39028898957568
        ]
      }
    },
    {
      "type": "Feature",
      "properties": {
        "norad_id": 66392,
        "name": "STARLINK-35671",
        "group": "last-30-days",
        "lat": 27.43143697878632,
        "lon": -53.800940965450636,
        "alt_km": 443.1743265678306,
        "timestamp": "2025-12-08T17:43:03.630663+00:00",
        "meta_object_name": "STARLINK-35671",
        "meta_object_id": "2025-257N",
        "meta_epoch": "2025-12-08T03:32:39.581376",
        "meta_mean_motion": 15.39593668,
        "meta_eccentricity": 0.00014385,
        "meta_inclination": 53.1602,
        "meta_ra_of_asc_node": 286.0819,
        "meta_arg_of_pericenter": 83.5677,
        "meta_mean_anomaly": 276.5491,
        "meta_ephemeris_type": 0,
        "meta_classification_type": "U",
        "meta_norad_cat_id": 66392,
        "meta_element_set_no": 999,
        "meta_rev_at_epoch": 566,
        "meta_bstar": 0.0020374587,
        "meta_mean_motion_dot": 0.00081906,
        "meta_mean_motion_ddot": 0,
        "tle_line1": "1 66392U 25257N   25342.14768034  .00081906  00000+0  20375-2 0  9998",
        "tle_line2": "2 66392  53.1602 286.0819 0001438  83.5677 276.5491 15.39593668  5667"
      },
      "geometry": {
        "type": "Point",
        "coordinates": [
          -53.800940965450636,
          27.43143697878632
        ]
      }
    },
    {
      "type": "Feature",
      "properties": {
        "norad_id": 66393,
        "name": "STARLINK-35652",
        "group": "last-30-days",
        "lat": 52.835264049274336,
        "lon": 4.704326386582424,
        "alt_km": 439.171029673621,
        "timestamp": "2025-12-08T17:43:03.630674+00:00",
        "meta_object_name": "STARLINK-35652",
        "meta_object_id": "2025-257P",
        "meta_epoch": "2025-12-08T06:00:02.999808",
        "meta_mean_motion": 15.39568592,
        "meta_eccentricity": 0.0001301,
        "meta_inclination": 53.1587,
        "meta_ra_of_asc_node": 285.5019,
        "meta_arg_of_pericenter": 80.6246,
        "meta_mean_anomaly": 176.8365,
        "meta_ephemeris_type": 0,
        "meta_classification_type": "U",
        "meta_norad_cat_id": 66393,
        "meta_element_set_no": 999,
        "meta_rev_at_epoch": 577,
        "meta_bstar": 0.0019497913,
        "meta_mean_motion_dot": 0.00078262,
        "meta_mean_motion_ddot": 0,
        "tle_line1": "1 66393U 25257P   25342.25003472  .00078262  00000+0  19498-2 0  9994",
        "tle_line2": "2 66393  53.1587 285.5019 0001301  80.6246 176.8365 15.39568592  5777"
      },
      "geometry": {
        "type": "Point",
        "coordinates": [
          4.704326386582424,
          52.835264049274336
        ]
      }
    },
    {
      "type": "Feature",
      "properties": {
        "norad_id": 66394,
        "name": "STARLINK-35672",
        "group": "last-30-days",
        "lat": 53.014701813095016,
        "lon": 7.7497092508743215,
        "alt_km": 439.19927488935537,
        "timestamp": "2025-12-08T17:43:03.630685+00:00",
        "meta_object_name": "STARLINK-35672",
        "meta_object_id": "2025-257Q",
        "meta_epoch": "2025-12-08T06:00:02.999808",
        "meta_mean_motion": 15.39563478,
        "meta_eccentricity": 0.00012156,
        "meta_inclination": 53.1587,
        "meta_ra_of_asc_node": 285.4971,
        "meta_arg_of_pericenter": 85.4055,
        "meta_mean_anomaly": 173.9037,
        "meta_ephemeris_type": 0,
        "meta_classification_type": "U",
        "meta_norad_cat_id": 66394,
        "meta_element_set_no": 999,
        "meta_rev_at_epoch": 577,
        "meta_bstar": 0.0021290326,
        "meta_mean_motion_dot": 0.00085561,
        "meta_mean_motion_ddot": 0,
        "tle_line1": "1 66394U 25257Q   25342.25003472  .00085561  00000+0  21290-2 0  9998",
        "tle_line2": "2 66394  53.1587 285.4971 0001215  85.4055 173.9037 15.39563478  5771"
      },
      "geometry": {
        "type": "Point",
        "coordinates": [
          7.7497092508743215,
          53.014701813095016
        ]
      }
    },
    {
      "type": "Feature",
      "properties": {
        "norad_id": 66395,
        "name": "STARLINK-35681",
        "group": "last-30-days",
        "lat": 48.462147578113516,
        "lon": 45.33860326063105,
        "alt_km": 439.9911804364974,
        "timestamp": "2025-12-08T17:43:03.630696+00:00",
        "meta_object_name": "STARLINK-35681",
        "meta_object_id": "2025-257R",
        "meta_epoch": "2025-12-08T06:00:02.999808",
        "meta_mean_motion": 15.39562116,
        "meta_eccentricity": 0.00010417,
        "meta_inclination": 53.1593,
        "meta_ra_of_asc_node": 285.4505,
        "meta_arg_of_pericenter": 93.3337,
        "meta_mean_anomaly": 189.9013,
        "meta_ephemeris_type": 0,
        "meta_classification_type": "U",
        "meta_norad_cat_id": 66395,
        "meta_element_set_no": 999,
        "meta_rev_at_epoch": 561,
        "meta_bstar": 0.0019924455,
        "meta_mean_motion_dot": 0.00079984,
        "meta_mean_motion_ddot": 0,
        "tle_line1": "1 66395U 25257R   25342.25003472  .00079984  00000+0  19924-2 0  9992",
        "tle_line2": "2 66395  53.1593 285.4505 0001041  93.3337 189.9013 15.39562116  5612"
      },
      "geometry": {
        "type": "Point",
        "coordinates": [
          45.33860326063105,
          48.462147578113516
        ]
      }
    },
    {
      "type": "Feature",
      "properties": {
        "norad_id": 66396,
        "name": "STARLINK-35669",
        "group": "last-30-days",
        "lat": 47.65441232673281,
        "lon": 47.7959950428004,
        "alt_km": 440.10225872665706,
        "timestamp": "2025-12-08T17:43:03.630707+00:00",
        "meta_object_name": "STARLINK-35669",
        "meta_object_id": "2025-257S",
        "meta_epoch": "2025-12-08T06:00:02.999808",
        "meta_mean_motion": 15.39562132,
        "meta_eccentricity": 0.00010468,
        "meta_inclination": 53.1594,
        "meta_ra_of_asc_node": 285.4459,
        "meta_arg_of_pericenter": 93.1346,
        "meta_mean_anomaly": 191.9276,
        "meta_ephemeris_type": 0,
        "meta_classification_type": "U",
        "meta_norad_cat_id": 66396,
        "meta_element_set_no": 999,
        "meta_rev_at_epoch": 577,
        "meta_bstar": 0.0020667204,
        "meta_mean_motion_dot": 0.00083014,
        "meta_mean_motion_ddot": 0,
        "tle_line1": "1 66396U 25257S   25342.25003472  .00083014  00000+0  20667-2 0  9998",
        "tle_line2": "2 66396  53.1594 285.4459 0001046  93.1346 191.9276 15.39562132  5774"
      },
      "geometry": {
        "type": "Point",
        "coordinates": [
          47.7959950428004,
          47.65441232673281
        ]
      }
    }
  ]
}